IRIDIUM 119             
1 42959U 17061E   25170.26063408  .00000015  00000+0 -17397-5 0  9996
2 42959  86.3999 176.9208 0002466  92.2168 267.9310 14.34217744402791
IRIDIUM 107             
1 42960U 17061F   25170.41919853  .00000033  00000+0  47764-5 0  9999
2 42960  86.3992 176.8736 0002737  83.4437 276.7070 14.34217703402823
IRIDIUM 132             
1 42961U 17061G   25170.42554127  .00000034  00000+0  52455-5 0  9994
2 42961  86.3992 176.8531 0002428  87.2811 272.8663 14.34217655402823
IRIDIUM 136             
1 42962U 17061H   25170.24794864  .00000013  00000+0 -25354-5 0  9995
2 42962  86.3999 176.9322 0002501  90.3779 269.7703 14.34217724402816
IRIDIUM 139             
1 42963U 17061J   25170.25429120  .00000014  00000+0 -19906-5 0  9994
2 42963  86.4000 176.9854 0002442  85.2622 274.8853 14.34217641402827
IRIDIUM 125             
1 42964U 17061K   25170.45091131  .00000069  00000+0  17441-4 0  9994
2 42964  86.3995 176.9577 0002995  91.6091 268.5448 14.34218332402868
IRIDIUM 135             
1 43070U 17083A   25169.93665709 -.00000010  00000+0 -10642-4 0  9990
2 43070  86.3968 113.8886 0001958  84.3145 275.8274 14.34217420392084
IRIDIUM 138             
1 43071U 17083B   25170.58994579 -.00000094  00000+0 -40645-4 0  9992
2 43071  86.3958 113.2860 0002414  96.1656 263.9815 14.34216702392166
